# From MPEC 2023-D72
C/2020 F7 (Lemmon),e,93.9510,321.8704,227.9504,585.2351,0.0000696,0.99088894,0.0000,11/13.7467/2021,2000,g  7.0,4.0
# From MPEC 2023-J29
C/2020 F8 (SWAN),h,05/27.3117/2020,110.6426,259.9004,68.0919,1.000206,0.429466,2000,10.0,4.0
# From MPEC 2020-L06
P/2020 G1 (Pimentel),e,18.5098,240.1259,207.5947,3.608350,0.1437941,0.86037427,164.6985,05/07.0/2023,2000,g 17.0,4.0
# From MPEC 2022-YB4
C/2020 H2 (Pruyne),e,124.9151,277.6649,26.6686,189.6865,0.0003773,0.99561710,0.0000,04/27.8196/2020,2000,g 14.0,3.2
# From MPEC 2020-HM1
C/2020 H3 (Wierzchos),p,06/05.7162/2020,62.5292,30.4456,2.300288,270.6227,2000,13.5,4.0
# From MPEC 2020-L06
C/2020 H4 (Leonard),e,84.4973,307.6488,117.5443,47.85793,0.0029770,0.98068008,0.0000,08/29.6390/2020,2000,g 15.0,3.2
# From MPEC 2023-J29
C/2020 H5 (Robinson),e,70.2548,210.6274,326.3409,3887,0.0000041,0.99759683,0.0000,12/10.8217/2020,2000,g  5.0,4.0
# From MPEC 2023-J29
C/2020 H6 (ATLAS),e,79.9777,213.7192,20.3049,9905,0.0000010,0.99952529,0.0000,09/30.7029/2021,2000,g  8.0,3.2
# From MPEC 2020-KB7
C/2020 H7 (Lemmon),e,135.9235,323.5194,82.6780,1405,0.0000187,0.99685380,0.0000,06/02.9510/2020,2000,g 11.0,4.0
# From MPEC 2021-N06
C/2020 H8 (PANSTARRS),e,99.6880,68.4263,128.9377,597.4620,0.0000675,0.99217551,0.0000,06/04.5099/2020,2000,g 10.5,4.0
# From MPEC 2022-ED3
A/2020 H9,e,137.8789,213.1807,312.8336,371.0453,0.0001379,0.99306308,0.0000,12/21.6343/2019,2000,g 18.0,2.0
# From MPEC 2023-HN7
C/2020 H11 (PANSTARRS-Lemmon),h,09/15.1938/2020,151.4019,303.0335,91.4746,1.002253,7.627729,2000,8.5,4.0
# From MPEC 2023-J29
C/2020 J1 (SONEAR),h,04/18.6305/2021,142.3051,226.6040,341.7429,1.000746,3.353335,2000,8.5,3.2
# From MPEC 2023-J29
C/2020 K1 (PANSTARRS),e,89.6707,94.3554,213.9844,146043,0.0000000,0.99997896,0.0000,05/09.0835/2023,2000,g  5.5,4.0
# From MPEC 2021-N06
C/2020 K2 (PANSTARRS),h,08/06.3510/2020,91.0278,288.3939,67.3507,1.003875,8.879900,2000,10.8,4.0
# From MPEC 2020-KF9
C/2020 K3 (Leonard),p,06/01.0032/2020,129.0152,64.4924,1.583069,28.3546,2000,14.5,4.0
# From MPEC 2020-L06
C/2020 K4 (PANSTARRS),e,125.5829,264.1944,308.8614,23.96270,0.0084023,0.92681671,9.7387,05/07.0/2023,2000,g 16.5,4.0
# From MPEC 2021-R75
C/2020 K5 (PANSTARRS),h,06/05.4623/2021,67.1156,86.1620,249.6117,1.001373,1.536765,2000,11.0,4.0
# From MPEC 2023-J29
C/2020 K6 (Rankin),h,09/15.8293/2021,103.6496,291.5534,44.3363,1.003668,5.868857,2000,8.0,4.0
# From MPEC 2023-A50
C/2020 K7 (PANSTARRS),e,32.0419,286.0800,358.2544,98.64263,0.0010060,0.93518372,1.2946,05/07.0/2023,2000,g  8.0,4.0
# From MPEC 2021-P47
C/2020 K8 (Catalina-ATLAS),h,09/14.8464/2020,31.4255,181.5349,259.9604,1.000185,0.471984,2000,15.0,3.2
# From MPEC 2021-BE3
P/2020 K9 (Lemmon-PANSTARRS),e,23.2080,166.2440,197.0605,4.202873,0.1143891,0.32126576,93.0671,05/07.0/2023,2000,g 12.5,4.0
# From MPEC 2023-C45
P/2020 M1 (PANSTARRS),e,8.5380,142.6286,72.6481,5.317141,0.0803872,0.47374165,98.7165,05/07.0/2023,2000,g 14.5,4.0
# From MPEC 2022-H30
C/2020 M3 (ATLAS),e,23.4771,71.1601,328.5601,27.09977,0.0069864,0.95319113,6.4493,05/07.0/2023,2000,g 14.5,4.0
# From MPEC 2023-B57
A/2020 M4,h,11/24.1740/2020,160.1252,348.6230,104.6354,1.001035,5.950805,2000,14.5,2.0
# From MPC xxxxx
P/2020 MK4 (PANSTARRS),e,6.7987,0.7155,102.9197,6.205032,0.0637658,0.01184352,258.6193,05/07.0/2023,2000,g  8.0,4.0
# From MPEC 2023-FK0
C/2020 M5 (ATLAS),h,08/19.8581/2021,93.2190,352.0898,126.3045,1.000398,3.002838,2000,9.0,4.0
# From MPEC 2022-GA9
C/2020 N1 (PANSTARRS),h,03/12.3512/2021,29.7256,279.9269,186.7606,1.000470,1.318562,2000,12.5,4.0
# From MPEC 2021-P47
C/2020 N2 (ATLAS),e,161.0338,257.1591,331.3137,104.5264,0.0009223,0.98284963,0.0000,08/24.0882/2020,2000,g 16.0,3.2
# From MPEC 2023-J29
C/2020 O2 (Amaral),h,08/28.5160/2021,71.7603,256.7727,10.3037,1.001592,4.862395,2000,8.0,3.2
# From MPEC 2023-C45
P/2020 O3 (PANSTARRS),e,8.4443,266.8185,81.6376,4.647726,0.0983656,0.10311898,81.3307,05/07.0/2023,2000,g 12.0,4.0
# From MPEC 2021-BE3
C/2020 P1 (NEOWISE),h,10/20.4366/2020,45.1739,53.4859,8.8906,1.000318,0.341003,2000,14.0,3.2
# From MPEC 2023-J29
C/2020 P3 (ATLAS),h,04/21.3686/2021,61.8892,19.4657,82.2758,1.001467,6.812570,2000,6.0,4.0
# From MPEC 2022-PB4
C/2020 PV6 (PANSTARRS),e,128.2263,329.1489,71.3843,42.06599,0.0036125,0.94544229,2.1238,05/07.0/2023,2000,g 10.0,4.0
# From MPEC 2022-L66
C/2020 Q1 (Borisov),e,142.9424,52.3890,9.9574,60.92072,0.0020728,0.97836643,0.0000,08/14.4259/2020,2000,g 14.0,4.0
# From MPEC 2023-CD7
C/2020 Q2 (PANSTARRS),e,3.3363,179.8288,118.2646,10.64714,0.0283697,0.49208746,33.8498,05/07.0/2023,2000,g 12.0,3.2
# From MPEC 2022-X67
C/2020 R2 (PANSTARRS),e,53.2282,195.0934,211.7938,409.7026,0.0001189,0.98854569,0.0000,02/24.9030/2022,2000,g  9.0,4.0
# From MPEC 2022-K19
C/2020 R4 (ATLAS),e,164.4514,323.2722,46.6864,99.80149,0.0009885,0.98971049,0.0000,03/02.1704/2021,2000,g 13.5,4.0
# From MPEC 2023-C45
P/2020 R5 (PANSTARRS),e,11.4450,272.9688,82.6220,4.987520,0.0884865,0.31447865,94.9050,05/07.0/2023,2000,g  9.5,6.0
# From MPEC 2021-Y10
C/2020 R6 (Rankin),e,82.8130,12.1787,271.9919,315.2612,0.0001761,0.99005885,0.0000,09/08.5184/2019,2000,g 11.0,4.0
# From MPEC 2023-J29
C/2020 R7 (ATLAS),h,09/16.2519/2022,114.8962,268.2842,347.8413,1.000235,2.955985,2000,7.0,3.2
# From MPEC 2021-BE3
P/2020 S1 (PANSTARRS),e,13.7280,129.4621,255.0305,5.993167,0.0671768,0.50773080,56.3917,05/07.0/2023,2000,g 14.0,4.0
# From MPEC 2022-ST7
C/2020 S2 (PANSTARRS),e,22.4043,197.6626,202.3460,10.22301,0.0301534,0.82813160,26.1067,05/07.0/2023,2000,g 17.0,4.0
# From MPEC 2022-C56
C/2020 S3 (Erasmus),e,20.0179,222.5970,350.0944,152.2770,0.0005245,0.99739874,0.0000,12/12.0372/2020,2000,g 13.5,3.2
# From MPEC 2023-J29
C/2020 S4 (PANSTARRS),h,02/09.2407/2023,20.5690,117.7205,20.9924,1.001315,3.369734,2000,8.5,3.2
# From MPEC 2021-BE3
P/2020 S5 (PANSTARRS),e,12.3471,315.9990,53.2263,4.054411,0.1207292,0.33845956,120.8377,05/07.0/2023,2000,g 14.5,4.0
# From MPEC 2021-BE3
P/2020 S7 (PANSTARRS),e,16.0869,328.0292,40.5899,5.030819,0.0873466,0.41066125,78.5464,05/07.0/2023,2000,g 14.5,4.0
# From MPEC 2021-P47
C/2020 S8 (Lemmon),e,108.5275,24.0679,160.2741,262.8754,0.0002312,0.99101696,0.0000,04/10.8219/2021,2000,g 12.5,4.0
# From MPEC 2022-ST7
C/2020 T2 (Palomar),e,27.8551,82.9686,150.5191,305.7357,0.0001844,0.99327070,0.0000,07/11.0079/2021,2000,g 11.0,3.2
# From MPEC 2021-N06
P/2020 T3 (PANSTARRS),e,7.2990,73.9885,357.0406,3.516977,0.1494341,0.59210630,124.9556,05/07.0/2023,2000,g 18.0,3.2
# From MPEC 2021-N06
C/2020 T4 (PANSTARRS),h,07/05.3421/2021,83.8403,50.6150,79.6067,1.000261,2.191381,2000,13.0,3.2
# From MPEC 2021-BE3
C/2020 T5 (Lemmon),e,66.5593,237.8415,90.3364,745.7809,0.0000484,0.99746382,0.0000,10/09.3149/2020,2000,g 16.0,4.0
# From MPEC 2021-N06
P/2020 U2 (PANSTARRS),e,6.4195,342.8830,84.6491,3.778059,0.1342150,0.51113002,115.6842,05/07.0/2023,2000,g 18.0,4.0
# From MPEC 2021-W31
C/2020 U3 (Rankin),e,30.1571,282.6402,124.3466,66.54661,0.0018156,0.96577982,1.4884,05/07.0/2023,2000,g 15.0,4.0
# From MPEC 2023-CD7
C/2020 U4 (PANSTARRS),h,04/09.4289/2022,167.0228,120.3090,69.9993,1.001615,5.357697,2000,7.0,4.0
# From MPEC 2022-YB4
C/2020 U5 (PANSTARRS),e,97.2734,107.3266,75.4344,3810,0.0000042,0.99901412,0.0000,04/27.9655/2022,2000,g  8.0,4.0
# From MPEC 2023-HD1
C/2020 V2 (ZTF),h,05/08.5625/2023,131.6116,212.3715,162.4289,1.001148,2.227844,2000,7.8,4.0
# From MPEC 2023-D72
P/2020 V3 (PANSTARRS),e,23.0330,198.2524,249.3708,8.385730,0.0405875,0.25695654,33.1455,05/07.0/2023,2000,g  8.3,4.0
# From MPEC 2023-J29
P/2020 V4 (Rankin),e,14.2442,203.4831,257.0367,9.368784,0.0343700,0.45046254,22.6057,05/07.0/2023,2000,g  9.0,4.0
# From MPEC 2021-BE3
P/2020 W1 (Rankin),e,10.7869,124.2722,265.1581,7.214854,0.0508584,0.26632524,57.1322,05/07.0/2023,2000,g 10.0,4.0
# From MPEC 2021-BE3
C/2020 W5 (Lemmon),h,11/30.1172/2020,88.5969,75.4689,24.5018,1.000806,3.365404,2000,15.0,4.0
# From MPEC 2023-J29
P/2020 WJ5 (Lemmon),e,22.2933,177.8087,338.1723,6.015933,0.0667959,0.17136357,45.0952,05/07.0/2023,2000,g  8.5,4.0
# From MPEC 2021-P47
P/2020 X1 (ATLAS),e,31.6929,55.9905,323.4344,4.530933,0.1021934,0.36545142,104.2501,05/07.0/2023,2000,g 13.0,4.0
# From MPEC 2021-U31
C/2020 X2 (ATLAS),e,18.1850,105.4198,347.3761,16.45518,0.0147656,0.76741925,13.3170,05/07.0/2023,2000,g 10.6,4.0
# From MPEC 2021-S45
C/2020 X4 (Leonard),e,80.6075,161.8831,140.3066,40.69141,0.0037971,0.87166132,3.4252,05/07.0/2023,2000,g  9.0,4.0
# From MPEC 2023-D72
C/2020 Y2 (ATLAS),e,101.3009,26.5125,266.1536,1218,0.0000232,0.99742795,0.0000,06/17.8878/2022,2000,g  6.5,4.0
# From MPEC 2021-R75
C/2020 Y3 (ATLAS),e,83.1016,191.4396,341.9519,142.6674,0.0005784,0.98600791,0.0000,12/03.3196/2020,2000,g 13.5,4.0
# From MPEC 2023-CD7
C/2021 A1 (Leonard),h,01/03.2865/2022,132.7105,255.8984,225.1125,1.000017,0.615729,2000,8.5,4.0
# From MPEC 2022-F14
C/2021 A2 (NEOWISE),e,106.9878,125.1963,338.7842,233.2798,0.0002766,0.99394671,0.0000,01/22.4247/2021,2000,g 13.5,4.0
# From MPEC 2022-ED3
C/2021 A4 (NEOWISE),e,111.5370,307.1116,204.7091,42.46549,0.0035616,0.97298020,0.0000,03/19.7513/2021,2000,g 16.0,4.0
# From MPEC 2021-BE3
P/2021 A5 (PANSTARRS),e,18.1834,328.7610,61.3481,3.047729,0.1852420,0.13989746,167.7030,05/07.0/2023,2000,g 15.0,4.0
# From MPEC 2023-HD1
C/2021 A6 (PANSTARRS),e,75.6029,164.0744,351.6384,9184,0.0000011,0.99913697,0.0000,05/03.3058/2021,2000,g  9.0,4.0
# From MPEC 2022-M88
C/2021 A7 (NEOWISE),e,78.1536,154.5028,356.0098,2323,0.0000088,0.99915340,0.0000,07/15.1933/2021,2000,g 10.0,4.0
# From MPEC 2023-J29
C/2021 A9 (PANSTARRS),h,12/01.6329/2023,158.0179,314.8405,211.4610,1.002125,7.760105,2000,6.0,4.0
# From MPEC 2021-N06
C/2021 A10 (NEOWISE),e,151.9261,188.6819,82.3667,87.80265,0.0011980,0.98562206,0.0000,03/15.0659/2021,2000,g 19.0,4.0
# From MPEC 2022-L66
C/2021 B2 (PANSTARRS),e,38.0850,120.5221,334.9802,362.5804,0.0001428,0.99307208,0.0000,05/04.3736/2021,2000,g 14.0,4.0
# From MPEC 2021-N06
